FLOCK 3P-17             
1 41962U 17008Q   17345.89226455  .00003682  00000-0  15674-3 0  9994
2 41962  97.4752  46.6508 0007115 294.8823  65.1674 15.23607652 45372
